{"generatedAt":"2026-04-12T07:23:29.366791Z","satellites":[{"name":"SES-12","tle1":"1 43488U 18049A   26101.89602316 -.00000268  00000+0  00000+0 0  9999","tle2":"2 43488   0.0273  53.6948 0001409 253.0883 310.8984  1.00270404 28752"},{"name":"FENGYUN 2H","tle1":"1 43491U 18050A   26101.96414343 -.00000124  00000+0  00000+0 0  9995","tle2":"2 43491   2.8600  79.8282 0001349 155.9102  30.6137  1.00276484 28771"},{"name":"BEIDOU-2 IGSO-7","tle1":"1 43539U 18057A   26098.60612922 -.00000109  00000+0  00000+0 0  9997","tle2":"2 43539  55.1848 163.6675 0102136 237.2229 127.1361  1.00273248 28436"},{"name":"TELSTAR 19V","tle1":"1 43562U 18059A   26101.86473638 -.00000278  00000+0  00000+0 0  9994","tle2":"2 43562   0.0186 195.1456 0001652 246.4328   6.8104  1.00270389 28471"},{"name":"TELKOM 4 (MERAH PUTIH)","tle1":"1 43587U 18064A   26101.90615811 -.00000342  00000+0  00000+0 0  9995","tle2":"2 43587   0.0153 213.8961 0002230 204.1335 216.3187  1.00271818 28212"},{"name":"TELSTAR 18V","tle1":"1 43611U 18069A   26101.90451653 -.00000292  00000+0  00000+0 0  9994","tle2":"2 43611   0.0180 257.4849 0002034 121.8139 284.4508  1.00271717 27971"},{"name":"AZERSPACE 2 (IS-38)","tle1":"1 43632U 18074A   26101.93705523  .00000138  00000+0  00000+0 0  9992","tle2":"2 43632   0.0161 241.6046 0001378 140.2661 200.7371  1.00270757 27783"},{"name":"HORIZONS-3E","tle1":"1 43633U 18074B   26101.91066990 -.00000029  00000+0  00000+0 0  9999","tle2":"2 43633   0.0029 121.0590 0000673 208.7998   7.1105  1.00271442 27676"},{"name":"AEHF-4 (USA 288)","tle1":"1 43651U 18079A   26101.86395638 -.00000274  00000+0  00000+0 0  9994","tle2":"2 43651   1.4230 358.0749 0063592 358.8570  86.6698  1.00272125 27639"},{"name":"BEIDOU-3 G1","tle1":"1 43683U 18085A   26101.90772322 -.00000079  00000+0  00000+0 0  9993","tle2":"2 43683   2.9056  99.1717 0012848 291.5782 290.2807  1.00649700 27395"},{"name":"GSAT-29","tle1":"1 43698U 18089A   26101.88813646  .00000087  00000+0  00000+0 0  9993","tle2":"2 43698   0.0534  74.7190 0002638 312.6827 187.5074  1.00270364 27127"},{"name":"ES'HAIL 2","tle1":"1 43700U 18090A   26101.86112647  .00000146  00000+0  00000+0 0  9996","tle2":"2 43700   0.0150 127.3602 0001225 272.0646 136.4408  1.00270894 27017"},{"name":"GEO-KOMPSAT-2A","tle1":"1 43823U 18100A   26101.90260986 -.00000342  00000+0  00000+0 0  9998","tle2":"2 43823   0.0478  43.3188 0002035  25.1649 224.8432  1.00270453 26965"},{"name":"GSAT-11","tle1":"1 43824U 18100B   26101.89186315 -.00000075  00000+0  00000+0 0  9993","tle2":"2 43824   0.0552 259.5520 0006722 167.5297 168.0819  1.00272317 26810"},{"name":"GSAT-7A","tle1":"1 43864U 18105A   26101.92963922  .00000028  00000+0  00000+0 0  9990","tle2":"2 43864   0.0134 264.4779 0002288 123.2166 209.9349  1.00271642 26787"},{"name":"COSMOS 2533","tle1":"1 43867U 18107A   26101.03546838 -.00000037  00000+0  00000+0 0  9991","tle2":"2 43867   0.0360  94.0514 0000398   5.4542 182.5145  1.00270991 26779"},{"name":"TJS-3","tle1":"1 43874U 18110A   26101.80805700 -.00000350  00000+0  00000+0 0  9992","tle2":"2 43874   2.3729  81.2678 0000722  12.2636 144.3999  1.00770335 26759"},{"name":"ZHONGXING-2D","tle1":"1 43920U 19001A   26101.97428347 -.00000335  00000+0  00000+0 0  9993","tle2":"2 43920   0.0590  61.4063 0000376 303.4965 316.0415  1.00270659 53413"},{"name":"HELLAS-SAT 4 & SGS-1","tle1":"1 44034U 19007A   26101.17266953  .00000154  00000+0  00000+0 0  9999","tle2":"2 44034   0.0674 125.8138 0003772  10.7890 163.9673  1.00267074 26691"},{"name":"GSAT-31","tle1":"1 44035U 19007B   26101.90226875  .00000127  00000+0  00000+0 0  9990","tle2":"2 44035   0.0708 260.3900 0003966  76.4761 235.9249  1.00273026 26304"},{"name":"NUSANTARA SATU","tle1":"1 44048U 19009A   26101.83483625 -.00000233  00000+0  00000+0 0  9995","tle2":"2 44048   0.0316 138.5204 0002942 315.6390 192.4372  1.00270496 26105"},{"name":"ZHONGXING-6C","tle1":"1 44067U 19012A   26101.97428347 -.00000334  00000+0  00000+0 0  9997","tle2":"2 44067   0.0666  64.5026 0011194 334.3311 282.5094  1.00270431 26071"},{"name":"WGS 10 (USA 291)","tle1":"1 44071U 19014A   26101.96041675  .00000000  00000+0  00000+0 0  9997","tle2":"2 44071   0.0169 198.1293 0000232 163.3410 244.7467  1.00269213 25951"},{"name":"TIANLIAN 2-01","tle1":"1 44076U 19017A   26101.89246981 -.00000105  00000+0  00000+0 0  9991","tle2":"2 44076   0.3674  82.5465 0001848 259.4731 256.3906  1.00271924 25986"},{"name":"ARABSAT-6A","tle1":"1 44186U 19021A   26101.88319644  .00000155  00000+0  00000+0 0  9998","tle2":"2 44186   0.0581  22.8366 0002200 356.5557 169.1171  1.00269435 25492"},{"name":"BEIDOU-3 IGSO-1","tle1":"1 44204U 19023A   26101.70558780 -.00000206  00000+0  00000+0 0  9996","tle2":"2 44204  58.6067  38.3357 0024718 235.6905 297.5490  1.00259897  6541"},{"name":"BEIDOU-2 G8","tle1":"1 44231U 19027A   26101.90581654 -.00000243  00000+0  00000+0 0  9999","tle2":"2 44231   1.4892  74.3183 0011346 278.8275 317.6329  1.00273690 25411"},{"name":"YAMAL 601","tle1":"1 44307U 19031A   26101.45906174  .00000000  00000+0  00000+0 0  9996","tle2":"2 44307   0.0182 206.7849 0002637 177.7153  29.4460  1.00271643 25248"},{"name":"AT&T T-16","tle1":"1 44333U 19034A   26101.07290853 -.00000114  00000+0  00000+0 0  9993","tle2":"2 44333   0.0307  87.5469 0000489  93.6945 303.4465  1.00271212 24967"},{"name":"EUTELSAT 7C","tle1":"1 44334U 19034B   26101.23688252  .00000050  00000+0  00000+0 0  9994","tle2":"2 44334   0.0691 181.4534 0003289 188.0547 282.2259  1.00271452  6162"},{"name":"BEIDOU-3 IGSO-2","tle1":"1 44337U 19035A   26101.84030546 -.00000115  00000+0  00000+0 0  9995","tle2":"2 44337  55.2337 159.4458 0039216 214.6170 247.4165  1.00287955 25009"},{"name":"COSMOS 2539","tle1":"1 44457U 19048A   26100.74522497  .00000082  00000+0  00000+0 0  9993","tle2":"2 44457   0.0241 112.4211 0000593  96.7889 270.0281  1.00271838 24555"},{"name":"EDRS-C","tle1":"1 44475U 19049A   26101.90538321 -.00000260  00000+0  00000+0 0  9995","tle2":"2 44475   0.0178 157.7406 0001268 224.0689 286.7574  1.00273244 24547"},{"name":"INTELSAT 39 (IS-39)","tle1":"1 44476U 19049B   26101.53299744  .00000035  00000+0  00000+0 0  9997","tle2":"2 44476   0.0015 172.6173 0000401   3.3360 277.6215  1.00271145 24456"},{"name":"AMOS-17","tle1":"1 44479U 19050A   26101.88059644  .00000000  00000+0  00000+0 0  9995","tle2":"2 44479   0.0106 223.6961 0001463 165.0436 145.3737  1.00268074 24526"},{"name":"AEHF-5 (USA 292)","tle1":"1 44481U 19051A   26101.92780006 -.00000257  00000+0  00000+0 0  9992","tle2":"2 44481   1.5202 331.2829 0070208   3.1421 292.7646  1.00268700 24599"},{"name":"EUTELSAT 5 WEST B","tle1":"1 44624U 19067A   26101.87617641 -.00000040  00000+0  00000+0 0  9996","tle2":"2 44624   0.0697  22.3395 0003389   7.6770 120.4972  1.00271775 23772"},{"name":"TJS-4","tle1":"1 44637U 19070A   26101.96501010 -.00000169  00000+0  00000+0 0  9998","tle2":"2 44637   0.0429  49.4611 0002628  10.5133 211.1677  1.00272723 23876"},{"name":"BEIDOU-3 IGSO-3","tle1":"1 44709U 19073A   26101.89907056 -.00000157  00000+0  00000+0 0  9990","tle2":"2 44709  54.9163 281.6105 0041594 188.5477 171.3421  1.00257193 23798"},{"name":"TIBA-1","tle1":"1 44800U 19080A   26101.59902997  .00000157  00000+0  00000+0 0  9995","tle2":"2 44800   0.0576  24.2079 0001906   0.6266  66.1301  1.00274011 23396"},{"name":"INMARSAT GX5","tle1":"1 44801U 19080B   26101.88974138  .00000000  00000+0  00000+0 0  9991","tle2":"2 44801   0.0194 349.3578 0001990  32.3031 149.7710  1.00268947  6128"},{"name":"JCSAT-18 (KACIFIC 1)","tle1":"1 44868U 19091A   26101.35877804 -.00000199  00000+0  00000+0 0  9990","tle2":"2 44868   0.0329 342.7922 0000144  85.1155  50.8360  1.00272228 23347"},{"name":"ELEKTRO-L 3","tle1":"1 44903U 19095A   26101.96353676 -.00000095  00000+0  00000+0 0  9992","tle2":"2 44903   0.0868  69.2050 0001305 313.1477 240.6484  1.00272406 23040"},{"name":"SHIJIAN-20 (SJ-20)","tle1":"1 44910U 19097A   26101.90183397  .00000134  00000+0  00000+0 0  9990","tle2":"2 44910   4.7475  75.8546 0003379  20.2874 118.7416  1.00090304 23030"},{"name":"TJS-5","tle1":"1 44978U 20002A   26101.90615865 -.00000341  00000+0  00000+0 0  9993","tle2":"2 44978   0.1811 270.1198 0005961 125.9401 237.8018  1.00272737 23043"},{"name":"GSAT-30","tle1":"1 45026U 20005A   26101.89359648 -.00000163  00000+0  00000+0 0  9995","tle2":"2 45026   0.0129 231.3134 0002362 189.5530 183.9405  1.00273441 22840"},{"name":"EUTELSAT KONNECT","tle1":"1 45027U 20005B   26101.30820949  .00000051  00000+0  00000+0 0  9994","tle2":"2 45027   0.0685  92.8044 0001475 216.5950   8.3207  1.00271844 23665"},{"name":"JCSAT-17","tle1":"1 45245U 20013A   26101.56572581 -.00000316  00000+0  00000+0 0  9994","tle2":"2 45245   5.3944 356.2036 0004184  20.8254 162.4080  1.00272023 22563"},{"name":"GEO-KOMPSAT-2B","tle1":"1 45246U 20013B   26101.90260986 -.00000342  00000+0  00000+0 0  9995","tle2":"2 45246   0.0284 329.0807 0001004  21.5487 302.6935  1.00270954 22615"},{"name":"BEIDOU-3 G2","tle1":"1 45344U 20017A   26101.96431676 -.00000136  00000+0  00000+0 0  9991","tle2":"2 45344   2.7309  46.2491 0002920 345.8527 235.2746  1.00271624 22596"},{"name":"AEHF-6 (USA 298)","tle1":"1 45465U 20022B   26101.90442986 -.00000300  00000+0  00000+0 0  9994","tle2":"2 45465   2.6976 300.3028 0046535  17.7027 345.3636  1.00277475 22354"},{"name":"BEIDOU-3 G3","tle1":"1 45807U 20040A   26101.97038346 -.00000349  00000+0  00000+0 0  9995","tle2":"2 45807   2.2837  67.2333 0004726 333.3166 259.4337  1.00266336 21403"},{"name":"APSTAR-6D","tle1":"1 45863U 20045A   26100.37267008 -.00000316  00000+0  00000+0 0  9998","tle2":"2 45863   0.0468  98.6304 0001960 338.4597  29.6995  1.00272773 21182"},{"name":"KOREASAT 116","tle1":"1 45920U 20048A   26101.90018318 -.00000360  00000+0  00000+0 0  9992","tle2":"2 45920   0.0168 264.6791 0001005 111.6697 264.0272  1.00274877 20976"}]}